ONEWEB-0281             
1 48999U 21060AJ  23337.58793858  .00000032  00000+0  50089-4 0  9999
2 48999  87.9089  53.1872 0001675  97.4837 262.6484 13.16594247117705
ONEWEB-0282             
1 49000U 21060AK  23338.14947216  .00000076  00000+0  16594-3 0  9995
2 49000  87.9090  53.0920 0001724 119.8933 240.2369 13.16595228119071
ONEWEB-0283             
1 49001U 21060AL  23337.75893699  .00011368  00000+0  29692-1 0  9994
2 49001  87.9082  53.1824 0001733 104.5059 255.6264 13.16537568119030
ONEWEB-0284             
1 49002U 21060AM  23337.75259772 -.00000049  00000+0 -16135-3 0  9999
2 49002  87.9075  53.1786 0001785 115.8117 244.3198 13.16594625119002
ONEWEB-0285             
1 49075U 21075A   23337.62718450  .00000381  00000+0  10247-2 0  9998
2 49075  87.9006 174.9529 0001492  91.0809 269.0490 13.12445002114656
ONEWEB-0286             
1 49076U 21075B   23337.59845963 -.00000077  00000+0 -24881-3 0  9999
2 49076  87.9000 174.9670 0001883  80.5011 279.6330 13.12443936113024
ONEWEB-0287             
1 49077U 21075C   23338.12691051  .00000044  00000+0  81354-4 0  9998
2 49077  87.9209 189.9619 0001899  88.1498 271.9851 13.17649286112646
ONEWEB-0288             
1 49078U 21075D   23338.11622075 -.00000299  00000+0 -86767-3 0  9994
2 49078  87.8999 174.8693 0001705  91.1141 269.0183 13.12446237114703
